{
  "type": "FeatureCollection",
  "features": [
    {
      "type": "Feature",
      "properties": {
        "norad_id": 40938,
        "name": "BEIDOU-3S IGSO-2S (C56)",
        "group": "gnss",
        "lat": 49.23086493423751,
        "lon": -17.64287733584448,
        "alt_km": 35842.76799800779,
        "timestamp": "2025-12-18T10:51:26.046988+00:00",
        "meta_object_name": "BEIDOU-3S IGSO-2S (C56)",
        "meta_object_id": "2015-053A",
        "meta_epoch": "2025-12-17T17:12:22.751136",
        "meta_mean_motion": 1.00269192,
        "meta_eccentricity": 0.00604784,
        "meta_inclination": 49.5029,
        "meta_ra_of_asc_node": 260.9465,
        "meta_arg_of_pericenter": 188.653,
        "meta_mean_anomaly": 351.012,
        "meta_ephemeris_type": 0,
        "meta_classification_type": "U",
        "meta_norad_cat_id": 40938,
        "meta_element_set_no": 999,
        "meta_rev_at_epoch": 3753,
        "meta_bstar": 0,
        "meta_mean_motion_dot": -1.26e-06,
        "meta_mean_motion_ddot": 0,
        "tle_line1": "1 40938U 15053A   25351.71692999 -.00000126  00000+0  00000+0 0  9994",
        "tle_line2": "2 40938  49.5029 260.9465 0060478 188.6530 351.0120  1.00269192 37533"
      },
      "geometry": {
        "type": "Point",
        "coordinates": [
          -17.64287733584448,
          49.23086493423751
        ]
      }
    },
    {
      "type": "Feature",
      "properties": {
        "norad_id": 41019,
        "name": "GPS BIIF-11 (PRN 10)",
        "group": "gnss",
        "lat": 50.862806316701786,
        "lon": 164.3916662507674,
        "alt_km": 20312.09060646726,
        "timestamp": "2025-12-18T10:51:26.047000+00:00",
        "meta_object_name": "GPS BIIF-11 (PRN 10)",
        "meta_object_id": "2015-062A",
        "meta_epoch": "2025-12-17T07:07:49.922112",
        "meta_mean_motion": 2.00567224,
        "meta_eccentricity": 0.01109439,
        "meta_inclination": 56.8355,
        "meta_ra_of_asc_node": 37.826,
        "meta_arg_of_pericenter": 230.0627,
        "meta_mean_anomaly": 129.0159,
        "meta_ephemeris_type": 0,
        "meta_classification_type": "U",
        "meta_norad_cat_id": 41019,
        "meta_element_set_no": 999,
        "meta_rev_at_epoch": 7418,
        "meta_bstar": 0,
        "meta_mean_motion_dot": -7.6e-07,
        "meta_mean_motion_ddot": 0,
        "tle_line1": "1 41019U 15062A   25351.29710558 -.00000076  00000+0  00000+0 0  9994",
        "tle_line2": "2 41019  56.8355  37.8260 0110943 230.0627 129.0159  2.00567224 74188"
      },
      "geometry": {
        "type": "Point",
        "coordinates": [
          164.3916662507674,
          50.862806316701786
        ]
      }
    },
    {
      "type": "Feature",
      "properties": {
        "norad_id": 41028,
        "name": "GSAT-15 (GAGAN/PRN 139)",
        "group": "gnss",
        "lat": 0.027762487442448896,
        "lon": -16.319448966863902,
        "alt_km": 35790.263096743685,
        "timestamp": "2025-12-18T10:51:26.047014+00:00",
        "meta_object_name": "GSAT-15 (GAGAN/PRN 139)",
        "meta_object_id": "2015-065A",
        "meta_epoch": "2025-12-17T20:37:08.654016",
        "meta_mean_motion": 1.00271247,
        "meta_eccentricity": 0.00025451,
        "meta_inclination": 0.0348,
        "meta_ra_of_asc_node": 269.4843,
        "meta_arg_of_pericenter": 322.2151,
        "meta_mean_anomaly": 257.8098,
        "meta_ephemeris_type": 0,
        "meta_classification_type": "U",
        "meta_norad_cat_id": 41028,
        "meta_element_set_no": 999,
        "meta_rev_at_epoch": 3698,
        "meta_bstar": 0,
        "meta_mean_motion_dot": -2.33e-06,
        "meta_mean_motion_ddot": 0,
        "tle_line1": "1 41028U 15065A   25351.85912794 -.00000233  00000+0  00000+0 0  9990",
        "tle_line2": "2 41028   0.0348 269.4843 0002545 322.2151 257.8098  1.00271247 36989"
      },
      "geometry": {
        "type": "Point",
        "coordinates": [
          -16.319448966863902,
          0.027762487442448896
        ]
      }
    },
    {
      "type": "Feature",
      "properties": {
        "norad_id": 41174,
        "name": "GSAT0209 (GALILEO 12)",
        "group": "gnss",
        "lat": 39.276560449049455,
        "lon": 140.07866004523507,
        "alt_km": 23214.032203078976,
        "timestamp": "2025-12-18T10:51:26.047026+00:00",
        "meta_object_name": "GSAT0209 (GALILEO 12)",
        "meta_object_id": "2015-079A",
        "meta_epoch": "2025-12-17T18:49:30.009504",
        "meta_mean_motion": 1.70474581,
        "meta_eccentricity": 0.00024688,
        "meta_inclination": 55.7156,
        "meta_ra_of_asc_node": 106.2426,
        "meta_arg_of_pericenter": 347.1145,
        "meta_mean_anomaly": 12.8381,
        "meta_ephemeris_type": 0,
        "meta_classification_type": "U",
        "meta_norad_cat_id": 41174,
        "meta_element_set_no": 999,
        "meta_rev_at_epoch": 6168,
        "meta_bstar": 0,
        "meta_mean_motion_dot": -9e-08,
        "meta_mean_motion_ddot": 0,
        "tle_line1": "1 41174U 15079A   25351.78437511 -.00000009  00000+0  00000+0 0  9999",
        "tle_line2": "2 41174  55.7156 106.2426 0002468 347.1145  12.8381  1.70474581 61685"
      },
      "geometry": {
        "type": "Point",
        "coordinates": [
          140.07866004523507,
          39.276560449049455
        ]
      }
    },
    {
      "type": "Feature",
      "properties": {
        "norad_id": 41175,
        "name": "GSAT0208 (GALILEO 11)",
        "group": "gnss",
        "lat": -55.42900923250441,
        "lon": 24.777783526208164,
        "alt_km": 23227.44931652033,
        "timestamp": "2025-12-18T10:51:26.047041+00:00",
        "meta_object_name": "GSAT0208 (GALILEO 11)",
        "meta_object_id": "2015-079B",
        "meta_epoch": "2025-12-12T17:24:26.771040",
        "meta_mean_motion": 1.70474307,
        "meta_eccentricity": 0.00018806,
        "meta_inclination": 55.7111,
        "meta_ra_of_asc_node": 106.3784,
        "meta_arg_of_pericenter": 358.3144,
        "meta_mean_anomaly": 1.6545,
        "meta_ephemeris_type": 0,
        "meta_classification_type": "U",
        "meta_norad_cat_id": 41175,
        "meta_element_set_no": 999,
        "meta_rev_at_epoch": 6201,
        "meta_bstar": 0,
        "meta_mean_motion_dot": 4e-08,
        "meta_mean_motion_ddot": 0,
        "tle_line1": "1 41175U 15079B   25346.72530985  .00000004  00000+0  00000+0 0  9991",
        "tle_line2": "2 41175  55.7111 106.3784 0001880 358.3144   1.6545  1.70474307 62017"
      },
      "geometry": {
        "type": "Point",
        "coordinates": [
          24.777783526208164,
          -55.42900923250441
        ]
      }
    },
    {
      "type": "Feature",
      "properties": {
        "norad_id": 41241,
        "name": "IRNSS-1E",
        "group": "gnss",
        "lat": -28.09418195841911,
        "lon": 6.671688884100037,
        "alt_km": 35823.158251784975,
        "timestamp": "2025-12-18T10:51:26.047055+00:00",
        "meta_object_name": "IRNSS-1E",
        "meta_object_id": "2016-003A",
        "meta_epoch": "2025-12-17T16:32:48.379776",
        "meta_mean_motion": 1.00271769,
        "meta_eccentricity": 0.00216842,
        "meta_inclination": 32.8362,
        "meta_ra_of_asc_node": 62.381,
        "meta_arg_of_pericenter": 188.2818,
        "meta_mean_anomaly": 195.8729,
        "meta_ephemeris_type": 0,
        "meta_classification_type": "U",
        "meta_norad_cat_id": 41241,
        "meta_element_set_no": 999,
        "meta_rev_at_epoch": 3626,
        "meta_bstar": 0,
        "meta_mean_motion_dot": -3.06e-06,
        "meta_mean_motion_ddot": 0,
        "tle_line1": "1 41241U 16003A   25351.68944884 -.00000306  00000+0  00000+0 0  9997",
        "tle_line2": "2 41241  32.8362  62.3810 0021684 188.2818 195.8729  1.00271769 36266"
      },
      "geometry": {
        "type": "Point",
        "coordinates": [
          6.671688884100037,
          -28.09418195841911
        ]
      }
    },
    {
      "type": "Feature",
      "properties": {
        "norad_id": 41328,
        "name": "GPS BIIF-12 (PRN 32)",
        "group": "gnss",
        "lat": 41.611212861975815,
        "lon": 134.36735859294177,
        "alt_km": 20418.91783404594,
        "timestamp": "2025-12-18T10:51:26.047066+00:00",
        "meta_object_name": "GPS BIIF-12 (PRN 32)",
        "meta_object_id": "2016-007A",
        "meta_epoch": "2025-12-17T09:06:47.085696",
        "meta_mean_motion": 2.00560552,
        "meta_eccentricity": 0.0092397,
        "meta_inclination": 55.4087,
        "meta_ra_of_asc_node": 96.6729,
        "meta_arg_of_pericenter": 243.6823,
        "meta_mean_anomaly": 115.3496,
        "meta_ephemeris_type": 0,
        "meta_classification_type": "U",
        "meta_norad_cat_id": 41328,
        "meta_element_set_no": 999,
        "meta_rev_at_epoch": 7219,
        "meta_bstar": 0,
        "meta_mean_motion_dot": -3.9e-07,
        "meta_mean_motion_ddot": 0,
        "tle_line1": "1 41328U 16007A   25351.37971164 -.00000039  00000+0  00000+0 0  9997",
        "tle_line2": "2 41328  55.4087  96.6729 0092397 243.6823 115.3496  2.00560552 72199"
      },
      "geometry": {
        "type": "Point",
        "coordinates": [
          134.36735859294177,
          41.611212861975815
        ]
      }
    }
  ]
}